OBJECT_NAME,OBJECT_ID,EPOCH,MEAN_MOTION,ECCENTRICITY,INCLINATION,RA_OF_ASC_NODE,ARG_OF_PERICENTER,MEAN_ANOMALY,EPHEMERIS_TYPE,CLASSIFICATION_TYPE,NORAD_CAT_ID,ELEMENT_SET_NO,REV_AT_EPOCH,BSTAR,MEAN_MOTION_DOT,MEAN_MOTION_DDOT
ONEWEB-0410,2022-012A,2026-07-11T12:24:15.749280,13.17649907,.00019891,87.9152,1.0192,52.8851,307.2462,0,U,51622,999,21690,.20791037E-4,.21E-6,0
ONEWEB-0411,2022-012B,2026-07-11T14:24:40.161312,13.10377731,.00021946,87.8827,31.4026,97.6730,262.4647,0,U,51623,999,21248,-.17598659E-3,-.49E-6,0
ONEWEB-0415,2022-012C,2026-07-11T14:19:46.062624,13.10378279,.00021518,87.8824,31.4021,87.2395,272.8979,0,U,51624,999,21248,-.24687512E-3,-.74E-6,0
ONEWEB-0416,2022-012D,2026-07-11T14:36:53.823456,13.10376701,.00022186,87.8816,31.4161,84.8571,275.2810,0,U,51625,999,21252,.13017773E-2,.467E-5,0
ONEWEB-0422,2022-012E,2026-07-11T19:56:13.706016,13.17651316,.00018715,87.9149,0.9569,113.1896,246.9433,0,U,51626,999,21705,.35984467E-3,.153E-5,0
ONEWEB-0423,2022-012F,2026-07-11T21:35:51.643392,13.17647867,.00018057,87.9140,0.9473,89.8726,270.2613,0,U,51627,999,21695,.40939302E-4,.29E-6,0
ONEWEB-0425,2022-012G,2026-07-11T13:01:36.980832,13.10374767,.00018692,87.8816,31.4133,73.2798,286.8535,0,U,51628,999,21251,.20569279E-2,.731E-5,0
ONEWEB-0428,2022-012H,2026-07-11T14:22:13.002240,13.10377993,.00017504,87.8811,31.4077,84.7720,275.3607,0,U,51629,999,21248,-.30791078E-3,-.95E-6,0
ONEWEB-0431,2022-012J,2026-07-11T13:37:59.870784,13.10369733,.00023354,87.8814,31.4077,102.1304,258.0085,0,U,51630,999,21253,-.88218527E-3,-.295E-5,0
ONEWEB-0434,2022-012K,2026-07-11T13:06:42.055776,13.10372972,.0001679,87.8822,31.4385,66.5508,293.5795,0,U,51631,999,21251,.22758855E-2,.807E-5,0
ONEWEB-0435,2022-012L,2026-07-11T13:16:15.737952,13.10374075,.00017998,87.8810,31.4210,97.7590,262.3742,0,U,51632,999,21250,.14706453E-2,.526E-5,0
ONEWEB-0436,2022-012M,2026-07-11T21:23:42.126720,13.17648832,.0001861,87.9146,0.9324,99.4130,260.7212,0,U,51633,999,21693,-.72651826E-3,-.269E-5,0
ONEWEB-0438,2022-012N,2026-07-11T12:54:15.393888,13.10376590,.00018655,87.8821,31.4285,77.8733,282.2603,0,U,51634,999,21253,.18807786E-2,.669E-5,0
ONEWEB-0439,2022-012P,2026-07-11T12:59:09.406176,13.10374688,.00017886,87.8815,31.4147,84.2810,275.8521,0,U,51635,999,21251,.20000117E-2,.711E-5,0
ONEWEB-0442,2022-012Q,2026-07-11T21:12:47.708064,13.17650500,.00017992,87.9138,0.9652,75.3409,284.7922,0,U,51636,999,21692,.29392632E-4,.24E-6,0
ONEWEB-0443,2022-012R,2026-07-11T21:40:42.568608,13.17649470,.00014803,87.9139,0.9618,93.1899,266.9402,0,U,51637,999,21697,.12699279E-3,.62E-6,0
ONEWEB-0444,2022-012S,2026-07-11T14:34:26.185728,13.10377273,.0001612,87.8821,31.4003,86.9196,273.2115,0,U,51638,999,21253,.94971895E-3,.344E-5,0
ONEWEB-0445,2022-012T,2026-07-11T13:13:48.381888,13.10374399,.00019304,87.8825,31.4012,86.9011,273.2337,0,U,51639,999,21253,.14813709E-2,.53E-5,0
ONEWEB-0446,2022-012U,2026-07-11T14:31:59.830176,13.10351765,.0002278,87.8864,31.4196,104.2742,255.8639,0,U,51640,999,21252,-.48792407E-3,-.158E-5,0
ONEWEB-0448,2022-012V,2026-07-11T14:39:19.661472,13.10376743,.00017044,87.8821,31.4119,88.5354,271.5969,0,U,51641,999,21249,.10695952E-2,.386E-5,0
ONEWEB-0449,2022-012W,2026-07-11T14:46:39.068544,13.10373593,.00018921,87.8823,31.3979,69.0170,291.1159,0,U,51642,999,21250,.14968192E-2,.535E-5,0
ONEWEB-0451,2022-012X,2026-07-11T21:18:51.009696,13.17650699,.00017492,87.9153,0.9315,86.7698,273.3634,0,U,51643,999,21691,-.18549589E-3,-.59E-6,0
ONEWEB-0452,2022-012Y,2026-07-11T21:16:24.674016,13.17647542,.0001543,87.9137,0.9659,88.5372,271.5937,0,U,51644,999,21692,.89203624E-4,.48E-6,0
ONEWEB-0456,2022-012AA,2026-07-11T14:58:50.739168,13.10370430,.00017836,87.8825,31.3854,91.0144,269.1188,0,U,51646,999,21254,.16297657E-2,.582E-5,0
ONEWEB-0457,2022-012AB,2026-07-11T14:26:54.188448,13.10378741,.00021005,87.8822,31.4063,79.1191,281.0172,0,U,51647,999,21254,.7037633E-4,.37E-6,0
ONEWEB-0458,2022-012AC,2026-07-11T14:57:38.888064,13.10371795,.00016906,87.8821,31.3905,90.7460,269.3861,0,U,51648,999,21250,.17434818E-2,.621E-5,0
ONEWEB-0461,2022-012AD,2026-07-11T19:58:40.027008,13.17649813,.00019977,87.9152,0.9561,91.1598,268.9762,0,U,51649,999,21713,-.345719E-4,-.1E-7,0
ONEWEB-0463,2022-012AE,2026-07-11T12:14:32.704800,13.17650714,.00021622,87.9144,1.0411,93.0164,267.1215,0,U,51650,999,21687,.93552352E-4,.49E-6,0
ONEWEB-0464,2022-012AF,2026-07-11T14:53:59.364672,13.10372193,.00015455,87.8811,31.4105,94.7914,265.3390,0,U,51651,999,21252,.19004423E-2,.676E-5,0
ONEWEB-0468,2022-012AG,2026-07-11T20:31:09.331968,13.10370677,.00016667,87.8811,31.3579,93.6944,266.4374,0,U,51652,999,21253,.16097982E-2,.575E-5,0
