ONEWEB-0410             
1 51622U 22012A   26192.51684895  .00000021  00000+0  20791-4 0  9994
2 51622  87.9152   1.0192 0001989  52.8851 307.2462 13.17649907216908
ONEWEB-0411             
1 51623U 22012B   26192.60046483 -.00000049  00000+0 -17599-3 0  9993
2 51623  87.8827  31.4026 0002194  97.6730 262.4647 13.10377731212484
ONEWEB-0415             
1 51624U 22012C   26192.59706091 -.00000074  00000+0 -24688-3 0  9995
2 51624  87.8824  31.4021 0002151  87.2395 272.8979 13.10378279212483
ONEWEB-0416             
1 51625U 22012D   26192.60895629  .00000467  00000+0  13018-2 0  9992
2 51625  87.8816  31.4161 0002218  84.8571 275.2810 13.10376701212527
ONEWEB-0422             
1 51626U 22012E   26192.83071419  .00000153  00000+0  35984-3 0  9990
2 51626  87.9149   0.9569 0001871 113.1896 246.9433 13.17651316217055
ONEWEB-0423             
1 51627U 22012F   26192.89990328  .00000029  00000+0  40939-4 0  9995
2 51627  87.9140   0.9473 0001805  89.8726 270.2613 13.17647867216953
ONEWEB-0425             
1 51628U 22012G   26192.54278913  .00000731  00000+0  20569-2 0  9992
2 51628  87.8816  31.4133 0001869  73.2798 286.8535 13.10374767212514
ONEWEB-0428             
1 51629U 22012H   26192.59876160 -.00000095  00000+0 -30791-3 0  9990
2 51629  87.8811  31.4077 0001750  84.7720 275.3607 13.10377993212481
ONEWEB-0431             
1 51630U 22012J   26192.56805406 -.00000295  00000+0 -88219-3 0  9994
2 51630  87.8814  31.4077 0002335 102.1304 258.0085 13.10369733212536
ONEWEB-0434             
1 51631U 22012K   26192.54632009  .00000807  00000+0  22759-2 0  9993
2 51631  87.8822  31.4385 0001679  66.5508 293.5795 13.10372972212516
ONEWEB-0435             
1 51632U 22012L   26192.55295993  .00000526  00000+0  14706-2 0  9993
2 51632  87.8810  31.4210 0001799  97.7590 262.3742 13.10374075212502
ONEWEB-0436             
1 51633U 22012M   26192.89145980 -.00000269  00000+0 -72652-3 0  9992
2 51633  87.9146   0.9324 0001861  99.4130 260.7212 13.17648832216939
ONEWEB-0438             
1 51634U 22012N   26192.53767817  .00000669  00000+0  18808-2 0  9997
2 51634  87.8821  31.4285 0001865  77.8733 282.2603 13.10376590212534
ONEWEB-0439             
1 51635U 22012P   26192.54108109  .00000711  00000+0  20000-2 0  9997
2 51635  87.8815  31.4147 0001788  84.2810 275.8521 13.10374688212518
ONEWEB-0442             
1 51636U 22012Q   26192.88388551  .00000024  00000+0  29393-4 0  9999
2 51636  87.9138   0.9652 0001799  75.3409 284.7922 13.17650500216927
ONEWEB-0443             
1 51637U 22012R   26192.90327047  .00000062  00000+0  12699-3 0  9998
2 51637  87.9139   0.9618 0001480  93.1899 266.9402 13.17649470216973
ONEWEB-0444             
1 51638U 22012S   26192.60724752  .00000344  00000+0  94972-3 0  9997
2 51638  87.8821  31.4003 0001612  86.9196 273.2115 13.10377273212537
ONEWEB-0445             
1 51639U 22012T   26192.55125442  .00000530  00000+0  14814-2 0  9996
2 51639  87.8825  31.4012 0001930  86.9011 273.2337 13.10374399212533
ONEWEB-0446             
1 51640U 22012U   26192.60555359 -.00000158  00000+0 -48792-3 0  9999
2 51640  87.8864  31.4196 0002278 104.2742 255.8639 13.10351765212524
ONEWEB-0448             
1 51641U 22012V   26192.61064423  .00000386  00000+0  10696-2 0  9990
2 51641  87.8821  31.4119 0001704  88.5354 271.5969 13.10376743212499
ONEWEB-0449             
1 51642U 22012W   26192.61572996  .00000535  00000+0  14968-2 0  9992
2 51642  87.8823  31.3979 0001892  69.0170 291.1159 13.10373593212504
ONEWEB-0451             
1 51643U 22012X   26192.88809039 -.00000059  00000+0 -18550-3 0  9998
2 51643  87.9153   0.9315 0001749  86.7698 273.3634 13.17650699216911
ONEWEB-0452             
1 51644U 22012Y   26192.88639669  .00000048  00000+0  89204-4 0  9990
2 51644  87.9137   0.9659 0001543  88.5372 271.5937 13.17647542216926
ONEWEB-0456             
1 51646U 22012AA  26192.62419837  .00000582  00000+0  16298-2 0  9991
2 51646  87.8825  31.3854 0001783  91.0144 269.1188 13.10370430212545
ONEWEB-0457             
1 51647U 22012AB  26192.60201607  .00000037  00000+0  70376-4 0  9998
2 51647  87.8822  31.4063 0002100  79.1191 281.0172 13.10378741212548
ONEWEB-0458             
1 51648U 22012AC  26192.62336676  .00000621  00000+0  17435-2 0  9990
2 51648  87.8821  31.3905 0001690  90.7460 269.3861 13.10371795212505
ONEWEB-0461             
1 51649U 22012AD  26192.83240772 -.00000001  00000+0 -34572-4 0  9992
2 51649  87.9152   0.9561 0001997  91.1598 268.9762 13.17649813217136
ONEWEB-0463             
1 51650U 22012AE  26192.51010075  .00000049  00000+0  93552-4 0  9993
2 51650  87.9144   1.0411 0002162  93.0164 267.1215 13.17650714216876
ONEWEB-0464             
1 51651U 22012AF  26192.62082598  .00000676  00000+0  19004-2 0  9999
2 51651  87.8811  31.4105 0001545  94.7914 265.3390 13.10372193212526
ONEWEB-0468             
1 51652U 22012AG  26192.85496912  .00000575  00000+0  16098-2 0  9992
2 51652  87.8811  31.3579 0001666  93.6944 266.4374 13.10370677212536
